[
    {
        "name": "Medina Burger",
        "cuisine": "American",
        "description": "No details available",
        "opening_hours": "oses in 44 min: ",
        "telephone": "+212 664-888278",
        "website": "http://www.instagram.com/lemedinaburger/",
        "average_rating": 5.0,
        "address_id": 1
    },
    {
        "name": "Lao Marrakech",
        "cuisine": "International, Diner, WineBar",
        "description": "No details available",
        "opening_hours": "7:30 PM - 02:00 AM",
        "telephone": "+212 662-868040",
        "website": "http://www.lao-marrakech.com",
        "average_rating": 5.0,
        "address_id": 2
    },
    {
        "name": "Fluffy",
        "cuisine": "International, Spanish",
        "description": "No details available",
        "opening_hours": "No opening hours available",
        "telephone": "+212 660-232405",
        "website": "http://fluffymarrakech.com",
        "average_rating": 5.0,
        "address_id": 3
    },
    {
        "name": "Poka",
        "cuisine": "Asian, Thai, JapaneseFusion",
        "description": "No details available",
        "opening_hours": "No opening hours available",
        "telephone": "+212 681-855574",
        "website": "http://pokamarrakech.com/",
        "average_rating": 5.0,
        "address_id": 4
    },
    {
        "name": "L'Ô A LA BOUCHE - Marrakech",
        "cuisine": "French, Healthy, Gastropub",
        "description": "No details available",
        "opening_hours": "No opening hours available",
        "telephone": "+212 666-383133",
        "website": "http://loalabouche.ma",
        "average_rating": 5.0,
        "address_id": 5
    },
    {
        "name": "Pointbar",
        "cuisine": "Mediterranean, European",
        "description": "In a quiet street of Guéliz is the Pointbar, an establishment that will not leave you indifferent! With its large interior spaces with refined and contemporary decoration, you will quickly feel at ease to enjoy a few tapas over a drink or enjoy delicious international cuisine during a meal with friends. You can also enjoy a huge tree-lined terrace to lounge on one of the sofas to the rhythm of the music played each evening by the resident DJ. We inform our dear customers that the restaurant is smoking.",
        "opening_hours": "5:00 PM - 02:00 AM",
        "telephone": "+212 600-015010",
        "website": "http://www.pointbar-restaurant.com",
        "average_rating": 5.0,
        "address_id": 6
    },
    {
        "name": "Baromètre Marrakech",
        "cuisine": "French, International, Mediterranean",
        "description": "No details available",
        "opening_hours": "12:00 AM - 01:00 AM6:00 PM - 01:00 AM",
        "telephone": "+212 666-886798",
        "website": "http://www.lebarometre.net/",
        "average_rating": 5.0,
        "address_id": 7
    },
    {
        "name": "Dar Chef",
        "cuisine": "African, Moroccan, Healthy",
        "description": "D'ar Chef Restaurant is getting prepared and will soon be ready to welcome you for an exotic and relaxing trip! A traditional Moroccan decoration, a lighting with wonderful colors that will give you a warm oriental ambiance!",
        "opening_hours": "No opening hours available",
        "telephone": "+212 661-286859",
        "website": "http://www.darchef.ma/",
        "average_rating": 4.5,
        "address_id": 8
    },
    {
        "name": "L'Auberge Espagnole",
        "cuisine": "Latin, Mediterranean",
        "description": "No details available",
        "opening_hours": "6:00 PM - 02:00 AM",
        "telephone": "+212 5244-58913",
        "website": "http://www.lauberge-espagnole-marrakech.com/",
        "average_rating": 4.5,
        "address_id": 9
    },
    {
        "name": "Café Restaurant Dar L'hssira",
        "cuisine": "African, Moroccan, MiddleEastern",
        "description": "No details available",
        "opening_hours": "No opening hours available",
        "telephone": "+212 600-756845",
        "website": "https://www.facebook.com/CafeResTaurantDarLhssira/",
        "average_rating": 5.0,
        "address_id": 10
    },
    {
        "name": "La Terrasse de La Brillante - Rooftop",
        "cuisine": "Moroccan, International, Mediterranean",
        "description": "No details available",
        "opening_hours": "No opening hours available",
        "telephone": "+212 696-035951",
        "website": "http://www.laterrassedelabrillante.com/",
        "average_rating": 5.0,
        "address_id": 11
    },
    {
        "name": "La Table Ocre",
        "cuisine": "Moroccan, Mediterranean",
        "description": "No details available",
        "opening_hours": "oses in 44 min: ",
        "telephone": "+212 667-576209",
        "website": "http://www.instagram.com/latableocre/",
        "average_rating": 5.0,
        "address_id": 12
    },
    {
        "name": "Bazaar Café",
        "cuisine": "African, Moroccan, Mediterranean",
        "description": "Inspired by the global street food phenomenon, we propose food of the highest quality at fair price, in an elegant, charming and cozy atmosphere. Our cuisine is based on organic ingredients and locally grown products, with plenty of vegetarian and vegan options. Our selection of Moroccan and foreign wines, beers, spirits and cocktails perfectly match the traditional Arabic and Mediterranean culinary treasures.",
        "opening_hours": "No opening hours available",
        "telephone": "+212 5243-87283",
        "website": "http://www.bazaarcafe.ma/",
        "average_rating": 4.5,
        "address_id": 13
    },
    {
        "name": "Casa Lalla Restaurant",
        "cuisine": "French, Moroccan, International",
        "description": "No details available",
        "opening_hours": "No opening hours available",
        "telephone": "+212 674-984460",
        "website": "http://www.casalalla-restaurant.com",
        "average_rating": 5.0,
        "address_id": 14
    },
    {
        "name": "La Palette Restaurant Marrakech",
        "cuisine": "Moroccan, Mediterranean, European",
        "description": "No details available",
        "opening_hours": "oses in 44 min: ",
        "telephone": "+212 622-513311",
        "website": "http://www.lapalette-restaurant.com",
        "average_rating": 5.0,
        "address_id": 15
    },
    {
        "name": "My Taher",
        "cuisine": "Moroccan, Mediterranean",
        "description": "No details available",
        "opening_hours": "oses in 44 min: ",
        "telephone": "+212 661-142012",
        "website": "https://maps.google.com/maps?saddr=&daddr=9+Rue+des+Banques%2C+Marrakech+40000+Morocco@31.62626,-7.986915",
        "average_rating": 5.0,
        "address_id": 16
    },
    {
        "name": "Pepe Nero",
        "cuisine": "Italian, Moroccan, Mediterranean",
        "description": "No details available",
        "opening_hours": "No opening hours available",
        "telephone": "+212 5243-89067",
        "website": "http://www.pepenero-marrakech.com",
        "average_rating": 4.5,
        "address_id": 17
    },
    {
        "name": "Mazel مزال Cafe",
        "cuisine": "Cafe, Healthy, StreetFood",
        "description": "No details available",
        "opening_hours": "No opening hours available",
        "telephone": "+212 661-662824",
        "website": "http://www.instagram.com/mazel_marrakech/?hl=en",
        "average_rating": 5.0,
        "address_id": 18
    },
    {
        "name": "Gm Cafe Gourmet",
        "cuisine": "Italian, Japanese, Thai",
        "description": "No details available",
        "opening_hours": "oses in 44 min: ",
        "telephone": "+212 5244-33738",
        "website": "http://gmcafe.ma",
        "average_rating": 5.0,
        "address_id": 19
    },
    {
        "name": "Cafe Babouche",
        "cuisine": "African, Moroccan, Cafe",
        "description": "No details available",
        "opening_hours": "No opening hours available",
        "telephone": "+212 5243-75595",
        "website": "http://www.facebook.com/pages/category/Cafe/Cafe-babouche-1332778330081420",
        "average_rating": 4.5,
        "address_id": 20
    },
    {
        "name": "Taj Moroccan Food",
        "cuisine": "Moroccan",
        "description": "No details available",
        "opening_hours": "oses in 44 min: ",
        "telephone": "+212 5244-44294",
        "website": "http://imperious-agency.com/link/menu-taj-food.pdf",
        "average_rating": 5.0,
        "address_id": 21
    },
    {
        "name": "Manzil la Tortue",
        "cuisine": "French, Moroccan, International",
        "description": "No details available",
        "opening_hours": "No opening hours available",
        "telephone": "+212 661-955517",
        "website": "https://maps.google.com/maps?saddr=&daddr=Km12%2C+Route+de+Ouarzazate+Douar+Gzoula%2C+Marrakech+40000+Morocco@31.614029,-7.890144",
        "average_rating": 5.0,
        "address_id": 22
    },
    {
        "name": "ViaVia Morocco Marrakech",
        "cuisine": "Belgian, Moroccan, International",
        "description": "No details available",
        "opening_hours": "No opening hours available",
        "telephone": "+212 641-499187",
        "website": "http://www.viaviamarrakech.com",
        "average_rating": 5.0,
        "address_id": 23
    },
    {
        "name": "Cuisine De Terroir",
        "cuisine": "Moroccan, VegetarianFriendly, VeganOptions",
        "description": "a beautiful traditional Moroccan restaurant, delicious dishes, we recommend that you choose a table on the terrace, a very pleasant traditional musical atmosphere to recommend at all during your stay in Marrakech! Nothing to say, very good. The decor is very nice, typical Moroccan refined enough",
        "opening_hours": "No opening hours available",
        "telephone": "+212 610-193183",
        "website": "http://www.facebook.com/Cuisine.de.terroir/",
        "average_rating": 4.5,
        "address_id": 24
    },
    {
        "name": "Dar Zellij",
        "cuisine": "Moroccan, VegetarianFriendly, VeganOptions",
        "description": "Dear Customers, We inform you that the Restaurant Dar Zellij will be closed from July 2nd, 2019 to July 30th, 2019. We will be pleased to welcome you back starting from Wednesday July 31th, 2019. Happy holidays",
        "opening_hours": "oses in 43 min: ",
        "telephone": "+212 5243-82627",
        "website": "http://marrakech-riads.com/restaurant-dar-zellij/",
        "average_rating": 4.5,
        "address_id": 25
    },
    {
        "name": "Restaurant Angsana Si Said",
        "cuisine": "VegetarianFriendly, VeganOptions, GlutenFreeOptions",
        "description": "No details available",
        "opening_hours": "No opening hours available",
        "telephone": "+212 678-966066",
        "website": "http://www.angsanariadscollection.com",
        "average_rating": 5.0,
        "address_id": 26
    },
    {
        "name": "Chez Yassine",
        "cuisine": "Italian, Moroccan, Pizza",
        "description": "No details available",
        "opening_hours": "No opening hours available",
        "telephone": "+212 661-538081",
        "website": "http://www.facebook.com/chez-yassine-189689887735208",
        "average_rating": 4.5,
        "address_id": 27
    },
    {
        "name": "Dameh",
        "cuisine": "Lebanese, Moroccan, Mediterranean",
        "description": "No details available",
        "opening_hours": "No opening hours available",
        "telephone": "+212 611-200044",
        "website": "http://www.facebook.com/dameh.restaurant/",
        "average_rating": 5.0,
        "address_id": 28
    },
    {
        "name": "La Cantine Des Gazelles",
        "cuisine": "African, Moroccan, Mediterranean",
        "description": "No details available",
        "opening_hours": "No opening hours available",
        "telephone": "+212 624-061452",
        "website": "http://www.facebook.com/La-Cantine-Des-Gazelles-1752597298378867/",
        "average_rating": 4.5,
        "address_id": 29
    },
    {
        "name": "Las Terrazas De Andalucia",
        "cuisine": "Moroccan, Spanish, Asian",
        "description": "No details available",
        "opening_hours": "No opening hours available",
        "telephone": "+212 5244-48226",
        "website": "http://www.lasterrazas.ma",
        "average_rating": 4.5,
        "address_id": 30
    }
]